{
  "type": "FeatureCollection",
  "features": [
    {
      "type": "Feature",
      "properties": {
        "norad_id": 67138,
        "name": "KUIPER-00183",
        "group": "last-30-days",
        "lat": -43.846562189849706,
        "lon": 7.989718199040954,
        "alt_km": 474.36396981825783,
        "timestamp": "2025-12-26T21:25:51.737710+00:00",
        "meta_object_name": "KUIPER-00183",
        "meta_object_id": "2025-301F",
        "meta_epoch": "2025-12-26T12:19:10.562880",
        "meta_mean_motion": 15.3411572,
        "meta_eccentricity": 0.00112325,
        "meta_inclination": 51.8621,
        "meta_ra_of_asc_node": 58.8175,
        "meta_arg_of_pericenter": 149.2393,
        "meta_mean_anomaly": 210.9252,
        "meta_ephemeris_type": 0,
        "meta_classification_type": "U",
        "meta_norad_cat_id": 67138,
        "meta_element_set_no": 999,
        "meta_rev_at_epoch": 265,
        "meta_bstar": 0.00095952654,
        "meta_mean_motion_dot": 0.00031976,
        "meta_mean_motion_ddot": 0,
        "tle_line1": "1 67138U 25301F   25360.51331670  .00031976  00000+0  95953-3 0  9997",
        "tle_line2": "2 67138  51.8621  58.8175 0011232 149.2393 210.9252 15.34115720  2657"
      },
      "geometry": {
        "type": "Point",
        "coordinates": [
          7.989718199040954,
          -43.846562189849706
        ]
      }
    },
    {
      "type": "Feature",
      "properties": {
        "norad_id": 67139,
        "name": "KUIPER-00184",
        "group": "last-30-days",
        "lat": -33.50023451275942,
        "lon": 25.618619484595772,
        "alt_km": 472.5448902045382,
        "timestamp": "2025-12-26T21:25:51.737720+00:00",
        "meta_object_name": "KUIPER-00184",
        "meta_object_id": "2025-301G",
        "meta_epoch": "2025-12-26T15:22:21.745344",
        "meta_mean_motion": 15.34443698,
        "meta_eccentricity": 0.00089903,
        "meta_inclination": 51.8629,
        "meta_ra_of_asc_node": 58.1701,
        "meta_arg_of_pericenter": 144.075,
        "meta_mean_anomaly": 216.0841,
        "meta_ephemeris_type": 0,
        "meta_classification_type": "U",
        "meta_norad_cat_id": 67139,
        "meta_element_set_no": 999,
        "meta_rev_at_epoch": 278,
        "meta_bstar": 8.2316542e-05,
        "meta_mean_motion_dot": 2.409e-05,
        "meta_mean_motion_ddot": 0,
        "tle_line1": "1 67139U 25301G   25360.64052946  .00002409  00000+0  82317-4 0  9998",
        "tle_line2": "2 67139  51.8629  58.1701 0008990 144.0750 216.0841 15.34443698  2784"
      },
      "geometry": {
        "type": "Point",
        "coordinates": [
          25.618619484595772,
          -33.50023451275942
        ]
      }
    },
    {
      "type": "Feature",
      "properties": {
        "norad_id": 67140,
        "name": "KUIPER-00186",
        "group": "last-30-days",
        "lat": -19.60629434104516,
        "lon": 40.66677152629497,
        "alt_km": 468.46887734265056,
        "timestamp": "2025-12-26T21:25:51.737730+00:00",
        "meta_object_name": "KUIPER-00186",
        "meta_object_id": "2025-301H",
        "meta_epoch": "2025-12-26T13:43:42.720672",
        "meta_mean_motion": 15.35048245,
        "meta_eccentricity": 0.00076155,
        "meta_inclination": 51.8689,
        "meta_ra_of_asc_node": 58.463,
        "meta_arg_of_pericenter": 132.2511,
        "meta_mean_anomaly": 227.9122,
        "meta_ephemeris_type": 0,
        "meta_classification_type": "U",
        "meta_norad_cat_id": 67140,
        "meta_element_set_no": 999,
        "meta_rev_at_epoch": 249,
        "meta_bstar": 0.00093612405,
        "meta_mean_motion_dot": 0.00032101,
        "meta_mean_motion_ddot": 0,
        "tle_line1": "1 67140U 25301H   25360.57202223  .00032101  00000+0  93612-3 0  9998",
        "tle_line2": "2 67140  51.8689  58.4630 0007615 132.2511 227.9122 15.35048245  2494"
      },
      "geometry": {
        "type": "Point",
        "coordinates": [
          40.66677152629497,
          -19.60629434104516
        ]
      }
    },
    {
      "type": "Feature",
      "properties": {
        "norad_id": 67141,
        "name": "KUIPER-00187",
        "group": "last-30-days",
        "lat": 4.268230944049905,
        "lon": 60.2130196572115,
        "alt_km": 459.5946499486645,
        "timestamp": "2025-12-26T21:25:51.737743+00:00",
        "meta_object_name": "KUIPER-00187",
        "meta_object_id": "2025-301J",
        "meta_epoch": "2025-12-26T13:35:57.643296",
        "meta_mean_motion": 15.35866319,
        "meta_eccentricity": 0.0004351,
        "meta_inclination": 51.8716,
        "meta_ra_of_asc_node": 58.4274,
        "meta_arg_of_pericenter": 116.5736,
        "meta_mean_anomaly": 243.5696,
        "meta_ephemeris_type": 0,
        "meta_classification_type": "U",
        "meta_norad_cat_id": 67141,
        "meta_element_set_no": 999,
        "meta_rev_at_epoch": 249,
        "meta_bstar": 0.00093981712,
        "meta_mean_motion_dot": 0.00033077,
        "meta_mean_motion_ddot": 0,
        "tle_line1": "1 67141U 25301J   25360.56663939  .00033077  00000+0  93982-3 0  9996",
        "tle_line2": "2 67141  51.8716  58.4274 0004351 116.5736 243.5696 15.35866319  2498"
      },
      "geometry": {
        "type": "Point",
        "coordinates": [
          60.2130196572115,
          4.268230944049905
        ]
      }
    },
    {
      "type": "Feature",
      "properties": {
        "norad_id": 67142,
        "name": "KUIPER-00188",
        "group": "last-30-days",
        "lat": -22.377948101926055,
        "lon": 38.05305693485247,
        "alt_km": 469.05695139022555,
        "timestamp": "2025-12-26T21:25:51.737753+00:00",
        "meta_object_name": "KUIPER-00188",
        "meta_object_id": "2025-301K",
        "meta_epoch": "2025-12-26T15:18:24.104736",
        "meta_mean_motion": 15.34956781,
        "meta_eccentricity": 0.00073744,
        "meta_inclination": 51.8696,
        "meta_ra_of_asc_node": 58.1524,
        "meta_arg_of_pericenter": 137.0938,
        "meta_mean_anomaly": 223.0624,
        "meta_ephemeris_type": 0,
        "meta_classification_type": "U",
        "meta_norad_cat_id": 67142,
        "meta_element_set_no": 999,
        "meta_rev_at_epoch": 250,
        "meta_bstar": 0.00084104685,
        "meta_mean_motion_dot": 0.00028702,
        "meta_mean_motion_ddot": 0,
        "tle_line1": "1 67142U 25301K   25360.63777899  .00028702  00000+0  84105-3 0  9992",
        "tle_line2": "2 67142  51.8696  58.1524 0007374 137.0938 223.0624 15.34956781  2509"
      },
      "geometry": {
        "type": "Point",
        "coordinates": [
          38.05305693485247,
          -22.377948101926055
        ]
      }
    },
    {
      "type": "Feature",
      "properties": {
        "norad_id": 67143,
        "name": "KUIPER-00191",
        "group": "last-30-days",
        "lat": -15.62278683858016,
        "lon": 44.21613410803271,
        "alt_km": 466.9315215364886,
        "timestamp": "2025-12-26T21:25:51.737763+00:00",
        "meta_object_name": "KUIPER-00191",
        "meta_object_id": "2025-301L",
        "meta_epoch": "2025-12-26T12:08:39.084288",
        "meta_mean_motion": 15.35187778,
        "meta_eccentricity": 0.00066506,
        "meta_inclination": 51.868,
        "meta_ra_of_asc_node": 58.7716,
        "meta_arg_of_pericenter": 133.7778,
        "meta_mean_anomaly": 226.3759,
        "meta_ephemeris_type": 0,
        "meta_classification_type": "U",
        "meta_norad_cat_id": 67143,
        "meta_element_set_no": 999,
        "meta_rev_at_epoch": 251,
        "meta_bstar": 0.0011819205,
        "meta_mean_motion_dot": 0.00040852,
        "meta_mean_motion_ddot": 0,
        "tle_line1": "1 67143U 25301L   25360.50600792  .00040852  00000+0  11819-2 0  9997",
        "tle_line2": "2 67143  51.8680  58.7716 0006650 133.7778 226.3759 15.35187778  2512"
      },
      "geometry": {
        "type": "Point",
        "coordinates": [
          44.21613410803271,
          -15.62278683858016
        ]
      }
    },
    {
      "type": "Feature",
      "properties": {
        "norad_id": 67144,
        "name": "KUIPER-00196",
        "group": "last-30-days",
        "lat": 11.010086045331045,
        "lon": 65.62124491032006,
        "alt_km": 456.8659671749301,
        "timestamp": "2025-12-26T21:25:51.737773+00:00",
        "meta_object_name": "KUIPER-00196",
        "meta_object_id": "2025-301M",
        "meta_epoch": "2025-12-26T13:33:46.577088",
        "meta_mean_motion": 15.36059162,
        "meta_eccentricity": 0.00038651,
        "meta_inclination": 51.8736,
        "meta_ra_of_asc_node": 58.4142,
        "meta_arg_of_pericenter": 101.5158,
        "meta_mean_anomaly": 258.6262,
        "meta_ephemeris_type": 0,
        "meta_classification_type": "U",
        "meta_norad_cat_id": 67144,
        "meta_element_set_no": 999,
        "meta_rev_at_epoch": 249,
        "meta_bstar": 0.00084927224,
        "meta_mean_motion_dot": 0.00030026,
        "meta_mean_motion_ddot": 0,
        "tle_line1": "1 67144U 25301M   25360.56512242  .00030026  00000+0  84927-3 0  9999",
        "tle_line2": "2 67144  51.8736  58.4142 0003865 101.5158 258.6262 15.36059162  2495"
      },
      "geometry": {
        "type": "Point",
        "coordinates": [
          65.62124491032006,
          11.010086045331045
        ]
      }
    }
  ]
}